1 44766U 19074BF  22365.15453318  .00005969  00000-0  41921-3 0  9995
2 44766  53.0544  54.4230 0001402  65.2229 294.8906 15.06406207172842
1 44766U 19074BF  22365.41992860  .00008165  00000-0  56620-3 0  9997
2 44766  53.0536  53.2317 0001467  65.1687 294.9454 15.06411805172719
1 44766U 19074BF  22365.41992860  .00008165  00000-0  56620-3 0  9997
2 44766  53.0536  53.2317 0001467  65.1687 294.9454 15.06411805172887
1 44766U 19074BF  23001.14974365  .00002147  00000-0  16295-3 0  9993
2 44766  53.0536  49.9554 0001481  63.7745 296.3396 15.06405336172992
1 44766U 19074BF  23001.48147770 -.00003721  00000-0 -23105-3 0  9991
2 44766  53.0544  48.4657 0001571  68.8459 291.2698 15.06396857172870
1 44766U 19074BF  23001.81321637 -.00007295  00000-0 -47155-3 0  9995
2 44766  53.0535  46.9767 0001681  66.6989 293.4177 15.06384009172929
1 44766U 19074BF  23001.81321637 -.00007295  00000-0 -47155-3 0  9995
2 44766  53.0535  46.9767 0001681  66.6989 293.4177 15.06384009173098
1 44766U 19074BF  23002.47668511 -.00000228  00000-0  35864-5 0  9997
2 44766  53.0540  43.9986 0001734  65.0010 295.1158 15.06399382173190
1 44766U 19074BF  23002.54303315  .00000691  00000-0  65310-4 0  9994
2 44766  53.0537  43.7006 0001769  65.2180 294.8993 15.06396091173035
1 44766U 19074BF  23002.80842036  .00002983  00000-0  21908-3 0  9991
2 44766  53.0540  42.5093 0001789  65.5430 294.5745 15.06400275173071
1 44766U 19074BF  23003.14016045  .00004183  00000-0  29961-3 0  9993
2 44766  53.0542  41.0203 0001863  69.4325 290.6864 15.06393945173297
1 44766U 19074BF  23003.53824032  .00004866  00000-0  34537-3 0  9992
2 44766  53.0548  39.2338 0001805  72.7814 287.3373 15.06399069173186
1 44766U 19074BF  23004.40074711  .00007868  00000-0  54631-3 0  9992
2 44766  53.0542  35.3613 0001823  68.5841 291.5343 15.06412801173315
1 44766U 19074BF  23004.40074711  .00007868  00000-0  54631-3 0  9992
2 44766  53.0542  35.3613 0001823  68.5841 291.5343 15.06412801173483
1 44766U 19074BF  23004.79882434  .00011047  00000-0  75894-3 0  9991
2 44766  53.0538  33.5741 0001795  66.6769 293.4408 15.06419451173375
1 44766U 19074BF  23005.46228445  .00002999  00000-0  22003-3 0  9992
2 44766  53.0530  30.5951 0001744  67.1254 292.9919 15.06418313173474
1 44766U 19074BF  23005.46228445  .00002999  00000-0  22003-3 0  9992
2 44766  53.0530  30.5951 0001744  67.1254 292.9919 15.06418313173643
1 44766U 19074BF  23005.79401537  .00001775  00000-0  13800-3 0  9999
2 44766  53.0528  29.1081 0001754  57.3715 302.7443 15.06415875173521
1 44766U 19074BF  23006.45749513 -.00006360  00000-0 -40860-3 0  9995
2 44766  53.0538  26.1275 0001751  62.9314 297.1854 15.06385531173627
1 44766U 19074BF  23006.45749513 -.00006360  00000-0 -40860-3 0  9995
2 44766  53.0538  26.1275 0001751  62.9314 297.1854 15.06385531173795
1 44766U 19074BF  23007.12096166  .00001113  00000-0  93616-4 0  9996
2 44766  53.0539  23.1496 0001631  59.1203 300.9947 15.06398729173890
1 44766U 19074BF  23007.18730900  .00000723  00000-0  67461-4 0  9998
2 44766  53.0535  22.8514 0001676  64.1071 296.0091 15.06397688173732
1 44766U 19074BF  23007.85077473  .00005496  00000-0  38748-3 0  9998
2 44766  53.0534  19.8727 0001680  64.5236 295.5927 15.06407820173838
1 44766U 19074BF  23008.31520803  .00001704  00000-0  13329-3 0  9996
2 44766  53.0545  17.7887 0001548  67.1193 292.9959 15.06393744173901
1 44766U 19074BF  23008.31520803  .00001704  00000-0  13329-3 0  9996
2 44766  53.0545  17.7887 0001548  67.1193 292.9959 15.06393744174070
1 44766U 19074BF  23009.31040853  .00001147  00000-0  95893-4 0  9997
2 44766  53.0537  13.3195 0001635  67.9020 292.2142 15.06400017174056
1 44766U 19074BF  23009.70849159 -.00001900  00000-0 -10868-3 0  9993
2 44766  53.0539  11.5329 0001588  67.3323 292.7834 15.06395914174113
1 44766U 19074BF  23009.70849159 -.00001900  00000-0 -10868-3 0  9993
2 44766  53.0539  11.5329 0001588  67.3323 292.7834 15.06395914174281
1 44766U 19074BF  23010.37196261  .00000386  00000-0  44833-4 0  9992
2 44766  53.0541   8.5533 0001705  68.3547 291.7624 15.06395632174213
1 44766U 19074BF  23010.77004359  .00000847  00000-0  75790-4 0  9990
2 44766  53.0539   6.7669 0001712  68.5100 291.6072 15.06396693174275
1 44766U 19074BF  23010.77004359  .00000847  00000-0  75790-4 0  9990
2 44766  53.0539   6.7669 0001712  68.5100 291.6072 15.06396693174444
1 44766U 19074BF  23011.10177303  .00004235  00000-0  30301-3 0  9991
2 44766  53.0533   5.2788 0001847  66.7975 293.3208 15.06407247174496
1 44766U 19074BF  23011.23446536  .00004033  00000-0  28944-3 0  9998
2 44766  53.0543   4.6825 0001627  69.0744 291.0419 15.06408254174340
1 44766U 19074BF  23011.69889533  .00002270  00000-0  17125-3 0  9996
2 44766  53.0540   2.5965 0001569  66.8185 293.2969 15.06402648174589
1 44766U 19074BF  23011.83158826  .00002060  00000-0  15715-3 0  9996
2 44766  53.0543   2.0021 0001605  66.2478 293.8679 15.06404113174437
1 44766U 19074BF  23012.69410383 -.00003915  00000-0 -24417-3 0  9991
2 44766  53.0537 358.1299 0001956  75.5809 284.5397 15.06380972174566
1 44766U 19074BF  23012.69410383 -.00003915  00000-0 -24417-3 0  9991
2 44766  53.0537 358.1299 0001956  75.5809 284.5397 15.06380972174735
1 44766U 19074BF  23013.35758260 -.00004251  00000-0 -26684-3 0  9996
2 44766  53.0537 355.1506 0001584  90.7014 269.4157 15.06373980174666
1 44766U 19074BF  23013.95470420 -.00000645  00000-0 -24426-4 0  9997
2 44766  53.0535 352.4704 0001501  89.4752 270.6409 15.06388873174758
1 44766U 19074BF  23014.08739871  .00004039  00000-0  28997-3 0  9995
2 44766  53.0532 351.8745 0001476  92.8491 267.2667 15.06393099174947
1 44766U 19074BF  23014.35278972  .00030141  00000-0  20328-2 0  9997
2 44766  53.0540 350.6831 0001449  98.8511 261.2642 15.06417326174989
1 44766U 19074BF  23014.94991514  .00026206  00000-0  17710-2 0  9994
2 44766  53.0531 348.0018 0001816 104.4857 255.6334 15.06414202175078
1 44766U 19074BF  23015.34799323  .00024050  00000-0  16271-2 0  9999
2 44766  53.0535 346.2157 0001453  94.3946 265.7209 15.06420145174962
1 44766U 19074BF  23015.34799323  .00024050  00000-0  16271-2 0  9999
2 44766  53.0535 346.2157 0001453  94.3946 265.7209 15.06420145175132
1 44766U 19074BF  23015.61338228  .00027135  00000-0  18333-2 0  9990
2 44766  53.0541 345.0238 0001921  87.2752 272.8457 15.06405372175007
1 44766U 19074BF  23015.61338228  .00027135  00000-0  18333-2 0  9990
2 44766  53.0541 345.0238 0001921  87.2752 272.8457 15.06405372175175
1 44766U 19074BF  23016.14415418  .00015602  00000-0  10637-2 0  9991
2 44766  53.0538 342.6413 0001390 101.5064 258.6081 15.06410982175252
1 44766U 19074BF  23016.60857761  .00009006  00000-0  62245-3 0  9997
2 44766  53.0542 340.5562 0001414  97.8666 262.2483 15.06415124175150
1 44766U 19074BF  23016.80762976 -.00004360  00000-0 -27408-3 0  9994
2 44766  53.0539 339.6630 0001400 111.2110 248.9028 15.06383649175186
1 44766U 19074BF  23016.80762976 -.00004360  00000-0 -27408-3 0  9994
2 44766  53.0539 339.6630 0001400 111.2110 248.9028 15.06383649175355
1 44766U 19074BF  23017.27206320  .00002800  00000-0  20686-3 0  9998
2 44766  53.0537 337.5778 0001463 119.2573 240.8562 15.06381588175256
1 44766U 19074BF  23018.13457880  .00014779  00000-0  10088-2 0  9995
2 44766  53.0539 333.7087 0001650  72.7715 287.3454 15.06405376175559
1 44766U 19074BF  23018.26726888  .00023058  00000-0  15609-2 0  9990
2 44766  53.0541 333.1082 0001518  84.8863 275.2299 15.06420865175577
1 44766U 19074BF  23018.59899935  .00017642  00000-0  11995-2 0  9996
2 44766  53.0535 331.6207 0001452  84.9946 275.1209 15.06424896175457
1 44766U 19074BF  23018.59899935  .00017642  00000-0  11995-2 0  9996
2 44766  53.0535 331.6207 0001452  84.9946 275.1209 15.06424896175626
1 44766U 19074BF  23019.26245214  .00014647  00000-0  99911-3 0  9993
2 44766  53.0540 328.6397 0001452 106.9185 253.1963 15.06439440175554
1 44766U 19074BF  23019.26245214  .00014647  00000-0  99911-3 0  9993
2 44766  53.0540 328.6397 0001452 106.9185 253.1963 15.06439440175723
1 44766U 19074BF  23020.12497374  .00001197  00000-0  99282-4 0  9994
2 44766  53.0531 324.7687 0002533  88.9382 271.1897 15.06394861175858
1 44766U 19074BF  23021.12017859  .00024801  00000-0  16770-2 0  9997
2 44766  53.0555 320.3040 0001394  78.5897 281.5249 15.06422434176001
1 44766U 19074BF  23021.51826007  .00012870  00000-0  88101-3 0  9994
2 44766  53.0546 318.5136 0002048  80.8610 279.2610 15.06412566176069
1 44766U 19074BF  23022.11537705  .00015609  00000-0  10640-2 0  9990
2 44766  53.0544 315.8335 0002024  81.8568 278.2650 15.06416271176155
1 44766U 19074BF  23022.51346307  .00014517  00000-0  99117-3 0  9994
2 44766  53.0544 314.0491 0002231  85.1951 274.9292 15.06410356176212
1 44766U 19074BF  23023.50867460  .00021061  00000-0  14288-2 0  9999
2 44766  53.0537 309.5810 0001447  83.1131 277.0023 15.06394576176361
1 44766U 19074BF  23025.03464657  .00023573  00000-0  15953-2 0  9990
2 44766  53.0533 302.7289 0001131 102.2664 257.8452 15.06419166176596
1 44766U 19074BF  23025.49907603  .00004370  00000-0  31204-3 0  9995
2 44766  53.0546 300.6445 0001313  93.1268 266.9872 15.06402449176493
1 44766U 19074BF  23025.49907603  .00004370  00000-0  31204-3 0  9995
2 44766  53.0546 300.6445 0001313  93.1268 266.9872 15.06402449176662
1 44766U 19074BF  23026.02985136  .00013910  00000-0  95085-3 0  9999
2 44766  53.0536 298.2623 0001246  96.2998 263.8133 15.06401165176570
1 44766U 19074BF  23026.89235956  .00004627  00000-0  32930-3 0  9997
2 44766  53.0540 294.3863 0001361 111.2947 248.8187 15.06401271176871
1 44766U 19074BF  23027.15774586  .00007996  00000-0  55492-3 0  9994
2 44766  53.0527 293.1988 0001235  94.3387 265.7743 15.06408571176742
1 44766U 19074BF  23027.88756137  .00000388  00000-0  44922-4 0  9991
2 44766  53.0520 289.9223 0001392  94.6865 265.4283 15.06400267176850
1 44766U 19074BF  23028.15294162  .00007279  00000-0  50678-3 0  9997
2 44766  53.0527 288.7308 0001325  89.4503 270.6638 15.06420320176893
1 44766U 19074BF  23028.15294162  .00007279  00000-0  50678-3 0  9997
2 44766  53.0527 288.7308 0001325  89.4503 270.6638 15.06420320177063
1 44766U 19074BF  23028.75006761 -.00000999  00000-0 -48199-4 0  9999
2 44766  53.0521 286.0494 0001250  97.2981 262.8150 15.06398410177154
1 44766U 19074BF  23028.88276179 -.00001070  00000-0 -52970-4 0  9998
2 44766  53.0518 285.4541 0001308 101.2074 258.9062 15.06397558177003
1 44766U 19074BF  23029.87796526 -.00002178  00000-0 -12738-3 0  9998
2 44766  53.0525 280.9853 0001425  95.9685 264.1467 15.06401118177156
1 44766U 19074BF  23030.07700496 -.00001281  00000-0 -67104-4 0  9995
2 44766  53.0525 280.0919 0001408  96.6333 263.4817 15.06402378177182
1 44766U 19074BF  23030.07700496 -.00001281  00000-0 -67104-4 0  9995
2 44766  53.0525 280.0919 0001408  96.6333 263.4817 15.06402378177351
1 44766U 19074BF  23030.93951981  .00000738  00000-0  68467-4 0  9994
2 44766  53.0526 276.2198 0001451  99.8272 260.2881 15.06395150177314
1 44766U 19074BF  23031.07221312  .00001192  00000-0  98888-4 0  9993
2 44766  53.0531 275.6243 0001375 100.3984 259.7160 15.06397265177331
1 44766U 19074BF  23031.07221312  .00001192  00000-0  98888-4 0  9993
2 44766  53.0531 275.6243 0001375 100.3984 259.7160 15.06397265177500
1 44766U 19074BF  23031.93472098  .00001454  00000-0  11651-3 0  9990
2 44766  53.0528 271.7519 0001515 105.0362 255.0794 15.06400009177465
